[{"OBJECT_NAME":"COSMOS 2582","OBJECT_ID":"2025-026B","EPOCH":"2026-03-09T19:42:31.273920","MEAN_MOTION":14.94730838,"ECCENTRICITY":0.0010584,"INCLINATION":81.9985,"RA_OF_ASC_NODE":175.8563,"ARG_OF_PERICENTER":32.77,"MEAN_ANOMALY":327.4174,"EPHEMERIS_TYPE":0,"CLASSIFICATION_TYPE":"U","NORAD_CAT_ID":62903,"ELEMENT_SET_NO":999,"REV_AT_EPOCH":5936,"BSTAR":0.0001816,"MEAN_MOTION_DOT":1.996e-5,"MEAN_MOTION_DDOT":0},{"OBJECT_NAME":"STARLINK-34301","OBJECT_ID":"2025-126F","EPOCH":"2026-03-09T22:58:14.561472","MEAN_MOTION":14.98349125,"ECCENTRICITY":0.00029288,"INCLINATION":70.0029,"RA_OF_ASC_NODE":33.715,"ARG_OF_PERICENTER":272.8168,"MEAN_ANOMALY":87.2656,"EPHEMERIS_TYPE":0,"CLASSIFICATION_TYPE":"U","NORAD_CAT_ID":64349,"ELEMENT_SET_NO":999,"REV_AT_EPOCH":4072,"BSTAR":0.0008648725,"MEAN_MOTION_DOT":0.00010247,"MEAN_MOTION_DDOT":0}]
